KUIPER-00027            
1 63740U 25088S   25358.90477161 -.00004044  00000+0 -50188-3 0  9999
2 63740  51.9024  66.2747 0003715 275.8607  84.1932 14.79913610 36542
KUIPER-00028            
1 63741U 25088T   25358.92181778  .00002325  00000+0  33554-3 0  9994
2 63741  51.9008  64.1731 0003748 293.8684  66.1885 14.79722978 36986
KUIPER-00029            
1 63742U 25088U   25358.89834966  .00005101  00000+0  75136-3 0  9992
2 63742  51.9013  62.2391 0008250 232.9440 127.0767 14.76733169 36539
KUIPER-00030            
1 63743U 25088V   25358.55094182  .00003746  00000+0  51899-3 0  9997
2 63743  51.9025  82.8033 0014989 179.3195 180.7790 14.79984517 36508
KUIPER-00031            
1 63744U 25088W   25358.90310568 -.00001220  00000+0 -13090-3 0  9994
2 63744  51.9002  67.3156 0003296 224.7976 135.2720 14.79955671 36461
KUIPER-00032            
1 63745U 25088X   25358.49564761  .00016563  00000+0  50700-3 0  9998
2 63745  51.8716  26.8057 0003305 217.0954 142.9803 15.33946158 37992
KUIPER-00033            
1 63746U 25088Y   25359.00581905 -.00007080  00000+0 -90002-3 0  9991
2 63746  51.9018  96.8500 0002393 300.3639  59.7087 14.79957569 36547
KUIPER-00034            
1 63747U 25088Z   25359.18135012 -.00003945  00000+0 -48870-3 0  9997
2 63747  51.9004  58.5879 0000908 247.2396 112.8470 14.79944121 36778
